STARLINK-31774          
1 59622U 24080X   26068.31303101 -.00000576  00000+0 -11386-4 0  9994
2 59622  43.0047  36.6914 0001499 262.6792  97.3889 15.27576945104516
PHISAT 2                
1 60470U 24149C   26068.78834181  .00008925  00000+0  31421-3 0  9996
2 60470  97.3806 148.6498 0001175 168.6230 191.5037 15.29548631 86792
